[
    {
        "Altitude(m)": 605459.0152284615,
        "Argument of Periapsis(deg)": 0.0,
        "Eccentricity": 0.0,
        "Inclination(deg)": 60.0,
        "Latitude(deg)": 27.98816994280273,
        "Longitude(deg)": -137.20137265093965,
        "Mean Anomaly(deg)": 32.72730000000001,
        "RAAN(deg)": 305.0,
        "Satellite Name": "Test1 1344",
        "Satellite Number": 1344,
        "Semi-Major Axis(m)": 6980739.136638005,
        "Time(s)": 0
    },
    {
        "Altitude(m)": 605535.8059286311,
        "Argument of Periapsis(deg)": 0.00010418945913296404,
        "Eccentricity": 0.0,
        "Inclination(deg)": 60.0,
        "Latitude(deg)": 28.501298952909938,
        "Longitude(deg)": -136.844426797374,
        "Mean Anomaly(deg)": 33.34740614546182,
        "RAAN(deg)": 304.99957995086027,
        "Satellite Name": "Test1 1344",
        "Satellite Number": 1344,
        "Semi-Major Axis(m)": 6980739.136638005,
        "Time(s)": 10
    },
    {
        "Altitude(m)": 605614.2872465868,
        "Argument of Periapsis(deg)": 0.0002083789182659281,
        "Eccentricity": 0.0,
        "Inclination(deg)": 60.0,
        "Latitude(deg)": 29.01321043511548,
        "Longitude(deg)": -136.48361610751846,
        "Mean Anomaly(deg)": 33.967512290923665,
        "RAAN(deg)": 304.9991599017205,
        "Satellite Name": "Test1 1344",
        "Satellite Number": 1344,
        "Semi-Major Axis(m)": 6980739.136638005,
        "Time(s)": 20
    },
    {
        "Altitude(m)": 605694.4014903209,
        "Argument of Periapsis(deg)": 0.00031256837739889213,
        "Eccentricity": 0.0,
        "Inclination(deg)": 60.0,
        "Latitude(deg)": 29.52386711639778,
        "Longitude(deg)": -136.1188288255805,
        "Mean Anomaly(deg)": 34.58761843638547,
        "RAAN(deg)": 304.9987398525808,
        "Satellite Name": "Test1 1344",
        "Satellite Number": 1344,
        "Semi-Major Axis(m)": 6980739.136638005,
        "Time(s)": 30
    },
    {
        "Altitude(m)": 605776.0903584623,
        "Argument of Periapsis(deg)": 0.0004167578365318562,
        "Eccentricity": 0.0,
        "Inclination(deg)": 60.0,
        "Latitude(deg)": 30.033230727261856,
        "Longitude(deg)": -135.74995018947723,
        "Mean Anomaly(deg)": 35.20772458184732,
        "RAAN(deg)": 304.998319803441,
        "Satellite Name": "Test1 1344",
        "Satellite Number": 1344,
        "Semi-Major Axis(m)": 6980739.136638005,
        "Time(s)": 40
    },
    {
        "Altitude(m)": 605859.2949706395,
        "Argument of Periapsis(deg)": 0.0005209472956648203,
        "Eccentricity": 0.0,
        "Inclination(deg)": 60.0,
        "Latitude(deg)": 30.541261963005795,
        "Longitude(deg)": -135.37686337202024,
        "Mean Anomaly(deg)": 35.82783072730913,
        "RAAN(deg)": 304.9978997543013,
        "Satellite Name": "Test1 1344",
        "Satellite Number": 1344,
        "Semi-Major Axis(m)": 6980739.136638005,
        "Time(s)": 50
    },
    {
        "Altitude(m)": 605943.9558980479,
        "Argument of Periapsis(deg)": 0.0006251367547977843,
        "Eccentricity": 0.0,
        "Inclination(deg)": 60.0,
        "Latitude(deg)": 31.0479204436284,
        "Longitude(deg)": -134.999448909053,
        "Mean Anomaly(deg)": 36.447936872770974,
        "RAAN(deg)": 304.99747970516154,
        "Satellite Name": "Test1 1344",
        "Satellite Number": 1344,
        "Semi-Major Axis(m)": 6980739.136638005,
        "Time(s)": 60
    },
    {
        "Altitude(m)": 606030.0131942659,
        "Argument of Periapsis(deg)": 0.0007293262139307483,
        "Eccentricity": 0.0,
        "Inclination(deg)": 60.0,
        "Latitude(deg)": 31.553164672337193,
        "Longitude(deg)": -134.61758412757752,
        "Mean Anomaly(deg)": 37.06804301823283,
        "RAAN(deg)": 304.9970596560218,
        "Satellite Name": "Test1 1344",
        "Satellite Number": 1344,
        "Semi-Major Axis(m)": 6980739.136638005,
        "Time(s)": 70
    },
    {
        "Altitude(m)": 606117.4064262573,
        "Argument of Periapsis(deg)": 0.0008335156730637124,
        "Eccentricity": 0.0,
        "Inclination(deg)": 60.0,
        "Latitude(deg)": 32.05695199262076,
        "Longitude(deg)": -134.231144086926,
        "Mean Anomaly(deg)": 37.68814916369463,
        "RAAN(deg)": 304.99663960688207,
        "Satellite Name": "Test1 1344",
        "Satellite Number": 1344,
        "Semi-Major Axis(m)": 6980739.136638005,
        "Time(s)": 80
    },
    {
        "Altitude(m)": 606206.0747055582,
        "Argument of Periapsis(deg)": 0.0009377051321966765,
        "Eccentricity": 0.0,
        "Inclination(deg)": 60.0,
        "Latitude(deg)": 32.559238543840756,
        "Longitude(deg)": -133.8400010074415,
        "Mean Anomaly(deg)": 38.308255309156486,
        "RAAN(deg)": 304.99621955774234,
        "Satellite Name": "Test1 1344",
        "Satellite Number": 1344,
        "Semi-Major Axis(m)": 6980739.136638005,
        "Time(s)": 90
    },
    {
        "Altitude(m)": 606295.9567196309,
        "Argument of Periapsis(deg)": 0.0010418945913296407,
        "Eccentricity": 0.0,
        "Inclination(deg)": 60.0,
        "Latitude(deg)": 33.05997921530687,
        "Longitude(deg)": -133.44402369977325,
        "Mean Anomaly(deg)": 38.92836145461828,
        "RAAN(deg)": 304.99579950860254,
        "Satellite Name": "Test1 1344",
        "Satellite Number": 1344,
        "Semi-Major Axis(m)": 6980739.136638005,
        "Time(s)": 100
    },
    {
        "Altitude(m)": 606386.990763398,
        "Argument of Periapsis(deg)": 0.0011460840504626045,
        "Eccentricity": 0.0,
        "Inclination(deg)": 60.0,
        "Latitude(deg)": 33.5591275988008,
        "Longitude(deg)": -133.04307850792094,
        "Mean Anomaly(deg)": 39.54846760008014,
        "RAAN(deg)": 304.99537945946287,
        "Satellite Name": "Test1 1344",
        "Satellite Number": 1344,
        "Semi-Major Axis(m)": 6980739.136638005,
        "Time(s)": 110
    },
    {
        "Altitude(m)": 606479.1147708861,
        "Argument of Periapsis(deg)": 0.0012502735095955685,
        "Eccentricity": 0.0,
        "Inclination(deg)": 60.0,
        "Latitude(deg)": 34.056635939508034,
        "Longitude(deg)": -132.63702874057603,
        "Mean Anomaly(deg)": 40.16857374554194,
        "RAAN(deg)": 304.9949594103231,
        "Satellite Name": "Test1 1344",
        "Satellite Number": 1344,
        "Semi-Major Axis(m)": 6980739.136638005,
        "Time(s)": 120
    },
    {
        "Altitude(m)": 606572.2663470072,
        "Argument of Periapsis(deg)": 0.0013544629687285324,
        "Eccentricity": 0.0,
        "Inclination(deg)": 60.0,
        "Latitude(deg)": 34.552455085327225,
        "Longitude(deg)": -132.2257341039567,
        "Mean Anomaly(deg)": 40.788679891003795,
        "RAAN(deg)": 304.99453936118334,
        "Satellite Name": "Test1 1344",
        "Satellite Number": 1344,
        "Semi-Major Axis(m)": 6980739.136638005,
        "Time(s)": 130
    },
    {
        "Altitude(m)": 606666.3827994409,
        "Argument of Periapsis(deg)": 0.0014586524278614966,
        "Eccentricity": 0.0,
        "Inclination(deg)": 60.0,
        "Latitude(deg)": 35.046534434527125,
        "Longitude(deg)": -131.80905164937258,
        "Mean Anomaly(deg)": 41.40878603646564,
        "RAAN(deg)": 304.9941193120436,
        "Satellite Name": "Test1 1344",
        "Satellite Number": 1344,
        "Semi-Major Axis(m)": 6980739.136638005,
        "Time(s)": 140
    },
    {
        "Altitude(m)": 606761.4011706127,
        "Argument of Periapsis(deg)": 0.0015628418869944607,
        "Eccentricity": 0.0,
        "Inclination(deg)": 60.0,
        "Latitude(deg)": 35.53882188171962,
        "Longitude(deg)": -131.3868352101738,
        "Mean Anomaly(deg)": 42.02889218192745,
        "RAAN(deg)": 304.9936992629039,
        "Satellite Name": "Test1 1344",
        "Satellite Number": 1344,
        "Semi-Major Axis(m)": 6980739.136638005,
        "Time(s)": 150
    },
    {
        "Altitude(m)": 606857.2582697477,
        "Argument of Periapsis(deg)": 0.0016670313461274247,
        "Eccentricity": 0.0,
        "Inclination(deg)": 60.0,
        "Latitude(deg)": 36.029263762126355,
        "Longitude(deg)": -130.95893484140336,
        "Mean Anomaly(deg)": 42.6489983273893,
        "RAAN(deg)": 304.99327921376414,
        "Satellite Name": "Test1 1344",
        "Satellite Number": 1344,
        "Semi-Major Axis(m)": 6980739.136638005,
        "Time(s)": 160
    },
    {
        "Altitude(m)": 606953.8907049835,
        "Argument of Periapsis(deg)": 0.0017712208052603888,
        "Eccentricity": 0.0,
        "Inclination(deg)": 60.0,
        "Latitude(deg)": 36.517804794120266,
        "Longitude(deg)": -130.5251977755118,
        "Mean Anomaly(deg)": 43.269104472851105,
        "RAAN(deg)": 304.9928591646244,
        "Satellite Name": "Test1 1344",
        "Satellite Number": 1344,
        "Semi-Major Axis(m)": 6980739.136638005,
        "Time(s)": 170
    },
    {
        "Altitude(m)": 607051.2349155227,
        "Argument of Periapsis(deg)": 0.001875410264393353,
        "Eccentricity": 0.0,
        "Inclination(deg)": 60.0,
        "Latitude(deg)": 37.00438802002376,
        "Longitude(deg)": -130.08546786893325,
        "Mean Anomaly(deg)": 43.88921061831296,
        "RAAN(deg)": 304.9924391154846,
        "Satellite Name": "Test1 1344",
        "Satellite Number": 1344,
        "Semi-Major Axis(m)": 6980739.136638005,
        "Time(s)": 180
    },
    {
        "Altitude(m)": 607149.2272038169,
        "Argument of Periapsis(deg)": 0.0019795997235263173,
        "Eccentricity": 0.0,
        "Inclination(deg)": 60.0,
        "Latitude(deg)": 37.48895474515498,
        "Longitude(deg)": -129.63958505298785,
        "Mean Anomaly(deg)": 44.50931676377476,
        "RAAN(deg)": 304.99201906634494,
        "Satellite Name": "Test1 1344",
        "Satellite Number": 1344,
        "Semi-Major Axis(m)": 6980739.136638005,
        "Time(s)": 190
    }
]